[{"OBJECT_NAME":"HEAD-3A","OBJECT_ID":"2023-121A","EPOCH":"2026-03-09T23:13:19.514208","MEAN_MOTION":14.60504198,"ECCENTRICITY":0.00053162,"INCLINATION":45.0013,"RA_OF_ASC_NODE":79.5453,"ARG_OF_PERICENTER":132.961,"MEAN_ANOMALY":227.1693,"EPHEMERIS_TYPE":0,"CLASSIFICATION_TYPE":"U","NORAD_CAT_ID":57626,"ELEMENT_SET_NO":999,"REV_AT_EPOCH":13707,"BSTAR":0.00022333117,"MEAN_MOTION_DOT":9.35e-6,"MEAN_MOTION_DDOT":0},{"OBJECT_NAME":"CZ-6A DEB","OBJECT_ID":"2024-140MQ","EPOCH":"2026-03-09T14:05:04.945920","MEAN_MOTION":14.57255116,"ECCENTRICITY":0.0124602,"INCLINATION":88.9858,"RA_OF_ASC_NODE":281.4248,"ARG_OF_PERICENTER":247.0195,"MEAN_ANOMALY":111.7831,"EPHEMERIS_TYPE":0,"CLASSIFICATION_TYPE":"U","NORAD_CAT_ID":61074,"ELEMENT_SET_NO":999,"REV_AT_EPOCH":8205,"BSTAR":0.00041723,"MEAN_MOTION_DOT":2.114e-5,"MEAN_MOTION_DDOT":0}]
